[Satellite]
VERSION=1.1
NAME=IRIDIUM 28 [-]
NICKNAME=IRIDIUM 28 [-]
TLE1=1 24948U 97051E   18020.87883905  .00000072  00000-0  18032-4 0  9995
TLE2=2 24948  86.3975 194.9335 0001784  85.0182 275.1219 14.35591882 65740
